[{"OBJECT_NAME":"STARLINK-35440","OBJECT_ID":"2025-253AC","EPOCH":"2026-02-24T08:28:41.513664","MEAN_MOTION":15.27580691,"ECCENTRICITY":0.0001168,"INCLINATION":42.999,"RA_OF_ASC_NODE":287.9253,"ARG_OF_PERICENTER":272.6888,"MEAN_ANOMALY":87.383,"EPHEMERIS_TYPE":0,"CLASSIFICATION_TYPE":"U","NORAD_CAT_ID":66345,"ELEMENT_SET_NO":999,"REV_AT_EPOCH":1820,"BSTAR":0.00081714,"MEAN_MOTION_DOT":0.00022292,"MEAN_MOTION_DDOT":0},{"OBJECT_NAME":"STARLINK-35482","OBJECT_ID":"2025-253AD","EPOCH":"2026-02-24T01:40:36.594336","MEAN_MOTION":15.27595448,"ECCENTRICITY":0.00013285,"INCLINATION":42.9996,"RA_OF_ASC_NODE":289.2364,"ARG_OF_PERICENTER":273.556,"MEAN_ANOMALY":86.5139,"EPHEMERIS_TYPE":0,"CLASSIFICATION_TYPE":"U","NORAD_CAT_ID":66346,"ELEMENT_SET_NO":999,"REV_AT_EPOCH":1816,"BSTAR":0.00050055454,"MEAN_MOTION_DOT":0.00013544,"MEAN_MOTION_DDOT":0},{"OBJECT_NAME":"STARLINK-35438","OBJECT_ID":"2025-253AE","EPOCH":"2026-02-23T23:53:29.846976","MEAN_MOTION":15.27585352,"ECCENTRICITY":0.00013335,"INCLINATION":42.9996,"RA_OF_ASC_NODE":289.5355,"ARG_OF_PERICENTER":265.7241,"MEAN_ANOMALY":94.3459,"EPHEMERIS_TYPE":0,"CLASSIFICATION_TYPE":"U","NORAD_CAT_ID":66347,"ELEMENT_SET_NO":999,"REV_AT_EPOCH":1815,"BSTAR":0.00070758715,"MEAN_MOTION_DOT":0.00019263,"MEAN_MOTION_DDOT":0},{"OBJECT_NAME":"STARLINK-35849","OBJECT_ID":"2025-254A","EPOCH":"2026-02-23T15:48:24.359328","MEAN_MOTION":15.30196461,"ECCENTRICITY":0.0001701,"INCLINATION":53.1601,"RA_OF_ASC_NODE":297.9034,"ARG_OF_PERICENTER":68.6391,"MEAN_ANOMALY":291.4791,"EPHEMERIS_TYPE":0,"CLASSIFICATION_TYPE":"U","NORAD_CAT_ID":66348,"ELEMENT_SET_NO":999,"REV_AT_EPOCH":1798,"BSTAR":0.0012783,"MEAN_MOTION_DOT":0.00037688,"MEAN_MOTION_DDOT":0},{"OBJECT_NAME":"STARLINK-35848","OBJECT_ID":"2025-254B","EPOCH":"2026-02-23T16:50:32.251488","MEAN_MOTION":15.30203762,"ECCENTRICITY":0.00018535,"INCLINATION":53.157,"RA_OF_ASC_NODE":297.4587,"ARG_OF_PERICENTER":84.9466,"MEAN_ANOMALY":275.1747,"EPHEMERIS_TYPE":0,"CLASSIFICATION_TYPE":"U","NORAD_CAT_ID":66349,"ELEMENT_SET_NO":999,"REV_AT_EPOCH":1683,"BSTAR":0.00085153974,"MEAN_MOTION_DOT":0.00024949,"MEAN_MOTION_DDOT":0},{"OBJECT_NAME":"STARLINK-35829","OBJECT_ID":"2025-254C","EPOCH":"2026-02-24T01:59:39.639552","MEAN_MOTION":15.30205853,"ECCENTRICITY":0.00010158,"INCLINATION":53.1576,"RA_OF_ASC_NODE":295.5743,"ARG_OF_PERICENTER":8.3834,"MEAN_ANOMALY":351.7184,"EPHEMERIS_TYPE":0,"CLASSIFICATION_TYPE":"U","NORAD_CAT_ID":66350,"ELEMENT_SET_NO":999,"REV_AT_EPOCH":1689,"BSTAR":0.00087350973,"MEAN_MOTION_DOT":0.00025606,"MEAN_MOTION_DDOT":0},{"OBJECT_NAME":"STARLINK-35828","OBJECT_ID":"2025-254D","EPOCH":"2026-02-24T01:50:32.482176","MEAN_MOTION":15.30201976,"ECCENTRICITY":6.69e-5,"INCLINATION":53.1572,"RA_OF_ASC_NODE":295.5349,"ARG_OF_PERICENTER":334.7365,"MEAN_ANOMALY":25.3603,"EPHEMERIS_TYPE":0,"CLASSIFICATION_TYPE":"U","NORAD_CAT_ID":66351,"ELEMENT_SET_NO":999,"REV_AT_EPOCH":1689,"BSTAR":0.00073934039,"MEAN_MOTION_DOT":0.00021603,"MEAN_MOTION_DDOT":0},{"OBJECT_NAME":"STARLINK-35850","OBJECT_ID":"2025-254E","EPOCH":"2026-02-24T01:32:18.570048","MEAN_MOTION":15.30198093,"ECCENTRICITY":7.461e-5,"INCLINATION":53.16,"RA_OF_ASC_NODE":295.4533,"ARG_OF_PERICENTER":93.6587,"MEAN_ANOMALY":266.4499,"EPHEMERIS_TYPE":0,"CLASSIFICATION_TYPE":"U","NORAD_CAT_ID":66352,"ELEMENT_SET_NO":999,"REV_AT_EPOCH":1689,"BSTAR":0.00098519991,"MEAN_MOTION_DOT":0.00028932,"MEAN_MOTION_DDOT":0},{"OBJECT_NAME":"STARLINK-35869","OBJECT_ID":"2025-254F","EPOCH":"2026-02-23T22:15:05.073984","MEAN_MOTION":15.3018117,"ECCENTRICITY":0.00015266,"INCLINATION":53.1601,"RA_OF_ASC_NODE":296.0188,"ARG_OF_PERICENTER":81.5257,"MEAN_ANOMALY":278.5917,"EPHEMERIS_TYPE":0,"CLASSIFICATION_TYPE":"U","NORAD_CAT_ID":66353,"ELEMENT_SET_NO":999,"REV_AT_EPOCH":1687,"BSTAR":0.00075204065,"MEAN_MOTION_DOT":0.00021967,"MEAN_MOTION_DDOT":0},{"OBJECT_NAME":"STARLINK-35895","OBJECT_ID":"2025-254G","EPOCH":"2026-02-24T01:15:45.848736","MEAN_MOTION":15.30195157,"ECCENTRICITY":0.00014988,"INCLINATION":53.161,"RA_OF_ASC_NODE":296.1025,"ARG_OF_PERICENTER":79.3568,"MEAN_ANOMALY":280.7602,"EPHEMERIS_TYPE":0,"CLASSIFICATION_TYPE":"U","NORAD_CAT_ID":66354,"ELEMENT_SET_NO":999,"REV_AT_EPOCH":1688,"BSTAR":0.00074407411,"MEAN_MOTION_DOT":0.00021739,"MEAN_MOTION_DDOT":0},{"OBJECT_NAME":"STARLINK-35861","OBJECT_ID":"2025-254H","EPOCH":"2026-02-24T01:06:38.420064","MEAN_MOTION":15.30194133,"ECCENTRICITY":0.00011246,"INCLINATION":53.16,"RA_OF_ASC_NODE":296.0516,"ARG_OF_PERICENTER":94.2459,"MEAN_ANOMALY":265.867,"EPHEMERIS_TYPE":0,"CLASSIFICATION_TYPE":"U","NORAD_CAT_ID":66355,"ELEMENT_SET_NO":999,"REV_AT_EPOCH":1688,"BSTAR":0.00079958068,"MEAN_MOTION_DOT":0.00023392,"MEAN_MOTION_DDOT":0},{"OBJECT_NAME":"STARLINK-35851","OBJECT_ID":"2025-254J","EPOCH":"2026-02-24T08:52:21.018144","MEAN_MOTION":15.30195708,"ECCENTRICITY":0.0001271,"INCLINATION":53.1591,"RA_OF_ASC_NODE":294.5157,"ARG_OF_PERICENTER":89.2328,"MEAN_ANOMALY":270.8818,"EPHEMERIS_TYPE":0,"CLASSIFICATION_TYPE":"U","NORAD_CAT_ID":66356,"ELEMENT_SET_NO":999,"REV_AT_EPOCH":1693,"BSTAR":0.00080603,"MEAN_MOTION_DOT":0.00023586,"MEAN_MOTION_DDOT":0},{"OBJECT_NAME":"STARLINK-35817","OBJECT_ID":"2025-254K","EPOCH":"2026-02-24T02:22:27.742944","MEAN_MOTION":15.30219563,"ECCENTRICITY":0.00012725,"INCLINATION":53.1563,"RA_OF_ASC_NODE":295.6716,"ARG_OF_PERICENTER":101.8168,"MEAN_ANOMALY":258.2976,"EPHEMERIS_TYPE":0,"CLASSIFICATION_TYPE":"U","NORAD_CAT_ID":66357,"ELEMENT_SET_NO":999,"REV_AT_EPOCH":1689,"BSTAR":0.0004812161,"MEAN_MOTION_DOT":0.00013928,"MEAN_MOTION_DDOT":0},{"OBJECT_NAME":"STARLINK-35807","OBJECT_ID":"2025-254L","EPOCH":"2026-02-24T08:34:06.845952","MEAN_MOTION":15.30196225,"ECCENTRICITY":8.02e-5,"INCLINATION":53.1574,"RA_OF_ASC_NODE":294.4349,"ARG_OF_PERICENTER":76.8668,"MEAN_ANOMALY":283.2422,"EPHEMERIS_TYPE":0,"CLASSIFICATION_TYPE":"U","NORAD_CAT_ID":66358,"ELEMENT_SET_NO":999,"REV_AT_EPOCH":1693,"BSTAR":0.00075081,"MEAN_MOTION_DOT":0.00021941,"MEAN_MOTION_DDOT":0},{"OBJECT_NAME":"STARLINK-35805","OBJECT_ID":"2025-254M","EPOCH":"2026-02-23T22:40:54.994080","MEAN_MOTION":15.30180337,"ECCENTRICITY":7.544e-5,"INCLINATION":53.1573,"RA_OF_ASC_NODE":296.131,"ARG_OF_PERICENTER":289.7411,"MEAN_ANOMALY":70.3508,"EPHEMERIS_TYPE":0,"CLASSIFICATION_TYPE":"U","NORAD_CAT_ID":66359,"ELEMENT_SET_NO":999,"REV_AT_EPOCH":1800,"BSTAR":0.00044717287,"MEAN_MOTION_DOT":0.000129,"MEAN_MOTION_DDOT":0},{"OBJECT_NAME":"STARLINK-35823","OBJECT_ID":"2025-254N","EPOCH":"2026-02-23T22:22:40.955808","MEAN_MOTION":15.30184668,"ECCENTRICITY":6.107e-5,"INCLINATION":53.1591,"RA_OF_ASC_NODE":296.0508,"ARG_OF_PERICENTER":73.4275,"MEAN_ANOMALY":286.6793,"EPHEMERIS_TYPE":0,"CLASSIFICATION_TYPE":"U","NORAD_CAT_ID":66360,"ELEMENT_SET_NO":999,"REV_AT_EPOCH":1687,"BSTAR":0.00051827649,"MEAN_MOTION_DOT":0.00015015,"MEAN_MOTION_DDOT":0},{"OBJECT_NAME":"STARLINK-35813","OBJECT_ID":"2025-254P","EPOCH":"2026-02-23T16:15:35.121312","MEAN_MOTION":15.30191907,"ECCENTRICITY":0.00015071,"INCLINATION":53.1586,"RA_OF_ASC_NODE":297.3036,"ARG_OF_PERICENTER":103.1462,"MEAN_ANOMALY":256.9707,"EPHEMERIS_TYPE":0,"CLASSIFICATION_TYPE":"U","NORAD_CAT_ID":66361,"ELEMENT_SET_NO":999,"REV_AT_EPOCH":1683,"BSTAR":0.0010558694,"MEAN_MOTION_DOT":0.00031036,"MEAN_MOTION_DDOT":0},{"OBJECT_NAME":"STARLINK-35822","OBJECT_ID":"2025-254Q","EPOCH":"2026-02-24T08:59:56.085216","MEAN_MOTION":15.30215112,"ECCENTRICITY":7.96e-5,"INCLINATION":53.1606,"RA_OF_ASC_NODE":294.5453,"ARG_OF_PERICENTER":241.7239,"MEAN_ANOMALY":118.3681,"EPHEMERIS_TYPE":0,"CLASSIFICATION_TYPE":"U","NORAD_CAT_ID":66362,"ELEMENT_SET_NO":999,"REV_AT_EPOCH":1693,"BSTAR":0.00074018,"MEAN_MOTION_DOT":0.00021637,"MEAN_MOTION_DDOT":0},{"OBJECT_NAME":"STARLINK-35806","OBJECT_ID":"2025-254R","EPOCH":"2026-02-24T09:10:34.895712","MEAN_MOTION":15.30202301,"ECCENTRICITY":5.25e-5,"INCLINATION":53.1604,"RA_OF_ASC_NODE":294.5936,"ARG_OF_PERICENTER":113.1361,"MEAN_ANOMALY":246.9695,"EPHEMERIS_TYPE":0,"CLASSIFICATION_TYPE":"U","NORAD_CAT_ID":66363,"ELEMENT_SET_NO":999,"REV_AT_EPOCH":1693,"BSTAR":0.00071659,"MEAN_MOTION_DOT":0.00020926,"MEAN_MOTION_DDOT":0},{"OBJECT_NAME":"STARLINK-35797","OBJECT_ID":"2025-254S","EPOCH":"2026-02-24T08:55:23.485440","MEAN_MOTION":15.30196429,"ECCENTRICITY":0.0001544,"INCLINATION":53.1596,"RA_OF_ASC_NODE":294.5278,"ARG_OF_PERICENTER":77.4889,"MEAN_ANOMALY":282.6284,"EPHEMERIS_TYPE":0,"CLASSIFICATION_TYPE":"U","NORAD_CAT_ID":66364,"ELEMENT_SET_NO":999,"REV_AT_EPOCH":1693,"BSTAR":0.00066095,"MEAN_MOTION_DOT":0.00019265,"MEAN_MOTION_DDOT":0},{"OBJECT_NAME":"STARLINK-35827","OBJECT_ID":"2025-254T","EPOCH":"2026-02-24T02:04:12.944352","MEAN_MOTION":15.30204568,"ECCENTRICITY":5.505e-5,"INCLINATION":53.1547,"RA_OF_ASC_NODE":295.591,"ARG_OF_PERICENTER":154.211,"MEAN_ANOMALY":205.8918,"EPHEMERIS_TYPE":0,"CLASSIFICATION_TYPE":"U","NORAD_CAT_ID":66365,"ELEMENT_SET_NO":999,"REV_AT_EPOCH":1689,"BSTAR":0.001068725,"MEAN_MOTION_DOT":0.00031432,"MEAN_MOTION_DDOT":0},{"OBJECT_NAME":"STARLINK-35845","OBJECT_ID":"2025-254U","EPOCH":"2026-02-24T02:16:22.669248","MEAN_MOTION":15.3019902,"ECCENTRICITY":8.16e-5,"INCLINATION":53.1577,"RA_OF_ASC_NODE":295.6414,"ARG_OF_PERICENTER":89.629,"MEAN_ANOMALY":270.4804,"EPHEMERIS_TYPE":0,"CLASSIFICATION_TYPE":"U","NORAD_CAT_ID":66366,"ELEMENT_SET_NO":999,"REV_AT_EPOCH":1689,"BSTAR":0.00096640368,"MEAN_MOTION_DOT":0.00028371,"MEAN_MOTION_DDOT":0},{"OBJECT_NAME":"STARLINK-35846","OBJECT_ID":"2025-254V","EPOCH":"2026-02-24T09:14:58.609248","MEAN_MOTION":15.30205769,"ECCENTRICITY":5.86e-5,"INCLINATION":53.1591,"RA_OF_ASC_NODE":293.8978,"ARG_OF_PERICENTER":95.7608,"MEAN_ANOMALY":264.346,"EPHEMERIS_TYPE":0,"CLASSIFICATION_TYPE":"U","NORAD_CAT_ID":66367,"ELEMENT_SET_NO":999,"REV_AT_EPOCH":1694,"BSTAR":0.00080901,"MEAN_MOTION_DOT":0.00023682,"MEAN_MOTION_DDOT":0}]
